ONEWEB-0033             
1 45142U 20008M   26005.64043464  .00000001  00000+0 -32145-4 0  9990
2 45142  87.8778  68.6890 0001209 106.7565 253.3695 13.10369540286924
ONEWEB-0035             
1 45143U 20008N   26005.59478859 -.00000214  00000+0 -64887-3 0  9999
2 45143  87.8784  68.6967 0001625 101.9156 258.2153 13.10375532286642
ONEWEB-0036             
1 45144U 20008P   26005.58482119 -.00000579  00000+0 -16964-2 0  9999
2 45144  87.8786  68.6592 0002044 102.7437 257.3918 13.10374544287075
ONEWEB-0038             
1 45145U 20008Q   26005.58046166  .00000650  00000+0  17986-2 0  9991
2 45145  87.8836  53.4373 0002133  47.0129 313.1178 13.11416931289012
ONEWEB-0039             
1 45146U 20008R   26005.56739889 -.00000208  00000+0 -63238-3 0  9994
2 45146  87.8792  68.6798 0002293  96.0257 264.1131 13.10370714286867
ONEWEB-0040             
1 45147U 20008S   26005.63712777  .00000139  00000+0  36165-3 0  9990
2 45147  87.8779  68.6889 0001755  98.7889 261.3437 13.10370811286570
ONEWEB-0043             
1 45149U 20008U   26005.63878323  .00000039  00000+0  76067-4 0  9997
2 45149  87.8778  68.6699 0002342  96.6087 263.5307 13.10370139286898
ONEWEB-0044             
1 45150U 20008V   26005.59063527 -.00000437  00000+0 -12880-2 0  9991
2 45150  87.8793  68.6715 0002027 101.2273 258.9082 13.10375116287187
